[{"OBJECT_NAME":"GPS BIIR-2  (PRN 13)","OBJECT_ID":"1997-035A","EPOCH":"2026-03-05T11:55:45.689376","MEAN_MOTION":2.00563987,"ECCENTRICITY":0.0097977,"INCLINATION":55.936,"RA_OF_ASC_NODE":102.6283,"ARG_OF_PERICENTER":56.2567,"MEAN_ANOMALY":304.7488,"EPHEMERIS_TYPE":0,"CLASSIFICATION_TYPE":"U","NORAD_CAT_ID":24876,"ELEMENT_SET_NO":999,"REV_AT_EPOCH":20987,"BSTAR":0,"MEAN_MOTION_DOT":9.0e-8,"MEAN_MOTION_DDOT":0},{"OBJECT_NAME":"GPS BIIR-5  (PRN 22)","OBJECT_ID":"2000-040A","EPOCH":"2026-03-05T19:51:28.632672","MEAN_MOTION":2.00568964,"ECCENTRICITY":0.0122665,"INCLINATION":54.8752,"RA_OF_ASC_NODE":219.2651,"ARG_OF_PERICENTER":302.5335,"MEAN_ANOMALY":230.2027,"EPHEMERIS_TYPE":0,"CLASSIFICATION_TYPE":"U","NORAD_CAT_ID":26407,"ELEMENT_SET_NO":999,"REV_AT_EPOCH":18787,"BSTAR":0,"MEAN_MOTION_DOT":1.4e-7,"MEAN_MOTION_DDOT":0},{"OBJECT_NAME":"GPS BIIR-8  (PRN 16)","OBJECT_ID":"2003-005A","EPOCH":"2026-03-05T09:57:48.106368","MEAN_MOTION":2.00566237,"ECCENTRICITY":0.0148737,"INCLINATION":54.9071,"RA_OF_ASC_NODE":219.0894,"ARG_OF_PERICENTER":52.7243,"MEAN_ANOMALY":318.2187,"EPHEMERIS_TYPE":0,"CLASSIFICATION_TYPE":"U","NORAD_CAT_ID":27663,"ELEMENT_SET_NO":999,"REV_AT_EPOCH":16923,"BSTAR":0,"MEAN_MOTION_DOT":9.0e-8,"MEAN_MOTION_DDOT":0},{"OBJECT_NAME":"GPS BIIR-11 (PRN 19)","OBJECT_ID":"2004-009A","EPOCH":"2026-03-05T08:25:27.111072","MEAN_MOTION":2.00558092,"ECCENTRICITY":0.0111001,"INCLINATION":54.9151,"RA_OF_ASC_NODE":279.8814,"ARG_OF_PERICENTER":169.0892,"MEAN_ANOMALY":311.4248,"EPHEMERIS_TYPE":0,"CLASSIFICATION_TYPE":"U","NORAD_CAT_ID":28190,"ELEMENT_SET_NO":999,"REV_AT_EPOCH":16086,"BSTAR":0,"MEAN_MOTION_DOT":-2.3e-7,"MEAN_MOTION_DDOT":0},{"OBJECT_NAME":"GPS BIIR-13 (PRN 02)","OBJECT_ID":"2004-045A","EPOCH":"2026-03-05T08:13:28.498944","MEAN_MOTION":2.00573478,"ECCENTRICITY":0.0170827,"INCLINATION":55.1942,"RA_OF_ASC_NODE":329.0814,"ARG_OF_PERICENTER":312.8671,"MEAN_ANOMALY":225.0992,"EPHEMERIS_TYPE":0,"CLASSIFICATION_TYPE":"U","NORAD_CAT_ID":28474,"ELEMENT_SET_NO":999,"REV_AT_EPOCH":15634,"BSTAR":0,"MEAN_MOTION_DOT":-9.4e-7,"MEAN_MOTION_DDOT":0},{"OBJECT_NAME":"GPS BIIRM-1 (PRN 17)","OBJECT_ID":"2005-038A","EPOCH":"2026-03-05T15:49:50.067264","MEAN_MOTION":2.00572953,"ECCENTRICITY":0.0128771,"INCLINATION":54.962,"RA_OF_ASC_NODE":277.3543,"ARG_OF_PERICENTER":295.3628,"MEAN_ANOMALY":71.8248,"EPHEMERIS_TYPE":0,"CLASSIFICATION_TYPE":"U","NORAD_CAT_ID":28874,"ELEMENT_SET_NO":999,"REV_AT_EPOCH":14976,"BSTAR":0,"MEAN_MOTION_DOT":-2.0e-7,"MEAN_MOTION_DDOT":0},{"OBJECT_NAME":"INMARSAT 4-F2 (SOUTHPAN/PRN 122)","OBJECT_ID":"2005-044A","EPOCH":"2026-03-05T18:54:38.721024","MEAN_MOTION":1.00271238,"ECCENTRICITY":0.0002714,"INCLINATION":4.96,"RA_OF_ASC_NODE":43.8087,"ARG_OF_PERICENTER":323.6628,"MEAN_ANOMALY":223.1994,"EPHEMERIS_TYPE":0,"CLASSIFICATION_TYPE":"U","NORAD_CAT_ID":28899,"ELEMENT_SET_NO":999,"REV_AT_EPOCH":7448,"BSTAR":0,"MEAN_MOTION_DOT":-2.65e-6,"MEAN_MOTION_DDOT":0},{"OBJECT_NAME":"GPS BIIRM-2 (PRN 31)","OBJECT_ID":"2006-042A","EPOCH":"2026-03-05T07:26:29.074272","MEAN_MOTION":2.00575327,"ECCENTRICITY":0.0106713,"INCLINATION":54.6981,"RA_OF_ASC_NODE":155.4642,"ARG_OF_PERICENTER":52.8923,"MEAN_ANOMALY":318.897,"EPHEMERIS_TYPE":0,"CLASSIFICATION_TYPE":"U","NORAD_CAT_ID":29486,"ELEMENT_SET_NO":999,"REV_AT_EPOCH":14231,"BSTAR":0,"MEAN_MOTION_DOT":9.0e-8,"MEAN_MOTION_DDOT":0},{"OBJECT_NAME":"GPS BIIRM-3 (PRN 12)","OBJECT_ID":"2006-052A","EPOCH":"2026-03-05T05:03:51.163776","MEAN_MOTION":2.0055171,"ECCENTRICITY":0.0087858,"INCLINATION":54.9569,"RA_OF_ASC_NODE":218.1252,"ARG_OF_PERICENTER":89.3737,"MEAN_ANOMALY":271.5836,"EPHEMERIS_TYPE":0,"CLASSIFICATION_TYPE":"U","NORAD_CAT_ID":29601,"ELEMENT_SET_NO":999,"REV_AT_EPOCH":14132,"BSTAR":0,"MEAN_MOTION_DOT":7.0e-8,"MEAN_MOTION_DDOT":0},{"OBJECT_NAME":"GPS BIIRM-4 (PRN 15)","OBJECT_ID":"2007-047A","EPOCH":"2026-03-05T00:27:38.494656","MEAN_MOTION":2.00560713,"ECCENTRICITY":0.01636084,"INCLINATION":54.0162,"RA_OF_ASC_NODE":84.358,"ARG_OF_PERICENTER":85.964,"MEAN_ANOMALY":275.961,"EPHEMERIS_TYPE":0,"CLASSIFICATION_TYPE":"U","NORAD_CAT_ID":32260,"ELEMENT_SET_NO":999,"REV_AT_EPOCH":13472,"BSTAR":0,"MEAN_MOTION_DOT":-8.0e-8,"MEAN_MOTION_DDOT":0},{"OBJECT_NAME":"COSMOS 2433 (720)","OBJECT_ID":"2007-052A","EPOCH":"2026-03-05T05:01:59.242080","MEAN_MOTION":2.13103864,"ECCENTRICITY":0.0002087,"INCLINATION":65.6344,"RA_OF_ASC_NODE":319.4346,"ARG_OF_PERICENTER":271.2037,"MEAN_ANOMALY":88.8315,"EPHEMERIS_TYPE":0,"CLASSIFICATION_TYPE":"U","NORAD_CAT_ID":32275,"ELEMENT_SET_NO":999,"REV_AT_EPOCH":14284,"BSTAR":0,"MEAN_MOTION_DOT":-5.7e-7,"MEAN_MOTION_DDOT":0},{"OBJECT_NAME":"COSMOS 2432 (719)","OBJECT_ID":"2007-052B","EPOCH":"2026-03-03T22:03:34.325856","MEAN_MOTION":2.13102981,"ECCENTRICITY":0.001063,"INCLINATION":65.6511,"RA_OF_ASC_NODE":319.6039,"ARG_OF_PERICENTER":330.1271,"MEAN_ANOMALY":64.0556,"EPHEMERIS_TYPE":0,"CLASSIFICATION_TYPE":"U","NORAD_CAT_ID":32276,"ELEMENT_SET_NO":999,"REV_AT_EPOCH":14284,"BSTAR":0,"MEAN_MOTION_DOT":-5.3e-7,"MEAN_MOTION_DDOT":0},{"OBJECT_NAME":"GPS BIIRM-5 (PRN 29)","OBJECT_ID":"2007-062A","EPOCH":"2026-03-05T08:05:38.584032","MEAN_MOTION":2.00553612,"ECCENTRICITY":0.0032949,"INCLINATION":55.1141,"RA_OF_ASC_NODE":278.326,"ARG_OF_PERICENTER":160.6805,"MEAN_ANOMALY":197.0086,"EPHEMERIS_TYPE":0,"CLASSIFICATION_TYPE":"U","NORAD_CAT_ID":32384,"ELEMENT_SET_NO":999,"REV_AT_EPOCH":13342,"BSTAR":0,"MEAN_MOTION_DOT":-2.1e-7,"MEAN_MOTION_DDOT":0},{"OBJECT_NAME":"COSMOS 2434 (721)","OBJECT_ID":"2007-065A","EPOCH":"2026-03-05T14:01:41.496384","MEAN_MOTION":2.13101183,"ECCENTRICITY":0.0003739,"INCLINATION":64.3181,"RA_OF_ASC_NODE":195.4072,"ARG_OF_PERICENTER":70.4545,"MEAN_ANOMALY":107.4157,"EPHEMERIS_TYPE":0,"CLASSIFICATION_TYPE":"U","NORAD_CAT_ID":32393,"ELEMENT_SET_NO":999,"REV_AT_EPOCH":14156,"BSTAR":0,"MEAN_MOTION_DOT":1.6e-7,"MEAN_MOTION_DDOT":0},{"OBJECT_NAME":"COSMOS 2436 (723)","OBJECT_ID":"2007-065C","EPOCH":"2026-03-04T01:08:09.746592","MEAN_MOTION":2.13099973,"ECCENTRICITY":0.00175306,"INCLINATION":64.3269,"RA_OF_ASC_NODE":195.53,"ARG_OF_PERICENTER":7.4777,"MEAN_ANOMALY":203.8673,"EPHEMERIS_TYPE":0,"CLASSIFICATION_TYPE":"U","NORAD_CAT_ID":32395,"ELEMENT_SET_NO":999,"REV_AT_EPOCH":14148,"BSTAR":0,"MEAN_MOTION_DOT":0,"MEAN_MOTION_DDOT":0},{"OBJECT_NAME":"GPS BIIRM-6 (PRN 07)","OBJECT_ID":"2008-012A","EPOCH":"2026-03-05T10:27:51.177600","MEAN_MOTION":2.00569259,"ECCENTRICITY":0.0207038,"INCLINATION":54.4824,"RA_OF_ASC_NODE":154.071,"ARG_OF_PERICENTER":246.204,"MEAN_ANOMALY":111.6495,"EPHEMERIS_TYPE":0,"CLASSIFICATION_TYPE":"U","NORAD_CAT_ID":32711,"ELEMENT_SET_NO":999,"REV_AT_EPOCH":13167,"BSTAR":0,"MEAN_MOTION_DOT":9.0e-8,"MEAN_MOTION_DDOT":0},{"OBJECT_NAME":"GPS BIIRM-8 (PRN 05)","OBJECT_ID":"2009-043A","EPOCH":"2026-03-04T22:17:35.308032","MEAN_MOTION":2.00560419,"ECCENTRICITY":0.00517137,"INCLINATION":56.1486,"RA_OF_ASC_NODE":31.547,"ARG_OF_PERICENTER":80.7039,"MEAN_ANOMALY":289.0108,"EPHEMERIS_TYPE":0,"CLASSIFICATION_TYPE":"U","NORAD_CAT_ID":35752,"ELEMENT_SET_NO":999,"REV_AT_EPOCH":12127,"BSTAR":0,"MEAN_MOTION_DOT":-8.5e-7,"MEAN_MOTION_DDOT":0}]
